[{"OBJECT_NAME":"STARLINK-32129","OBJECT_ID":"2024-120Y","EPOCH":"2026-03-09T23:12:26.237376","MEAN_MOTION":15.30186821,"ECCENTRICITY":0.00011023,"INCLINATION":53.1612,"RA_OF_ASC_NODE":318.9879,"ARG_OF_PERICENTER":80.4957,"MEAN_ANOMALY":279.6168,"EPHEMERIS_TYPE":0,"CLASSIFICATION_TYPE":"U","NORAD_CAT_ID":60157,"ELEMENT_SET_NO":999,"REV_AT_EPOCH":9649,"BSTAR":6.2011788e-5,"MEAN_MOTION_DOT":1.477e-5,"MEAN_MOTION_DDOT":0},{"OBJECT_NAME":"TOMORROW-S2","OBJECT_ID":"2024-149T","EPOCH":"2026-03-09T18:02:42.746496","MEAN_MOTION":15.30674935,"ECCENTRICITY":0.0001648,"INCLINATION":97.3857,"RA_OF_ASC_NODE":150.0385,"ARG_OF_PERICENTER":234.3331,"MEAN_ANOMALY":125.7757,"EPHEMERIS_TYPE":0,"CLASSIFICATION_TYPE":"U","NORAD_CAT_ID":60485,"ELEMENT_SET_NO":999,"REV_AT_EPOCH":8686,"BSTAR":0.00027683033,"MEAN_MOTION_DOT":8.133e-5,"MEAN_MOTION_DDOT":0}]
